#dP2019 10 13  0  0  0.00000000      97 __u+U IGS08 FIT  IAC
## 2075      0.00000000   900.00000000 58769 0.0000000000000
+  115   C01C02C03C04C05C06C07C08C09C10C11C12C13C14C16C19C20
+        C21C22C23C24C25C26C27C28C29C30C32C33C34C35C36C37E01
+        E02E03E04E05E07E08E09E11E12E13E14E15E18E19E21E24E25
+        E26E27E30E31E33E36G01G02G03G05G06G07G08G09G10G11G12
+        G13G14G15G16G17G18G19G20G21G22G23G24G25G26G27G28G29
+        G30G31G32J01J02J03J07R01R02R03R05R07R08R09R11R12R13
+        R14R15R16R17R18R19R20R21R22R23R24R26R27  0  0  0  0
++        13  0 13 13 13  8  8  8  8  8  7  7  7  7  8  7  7
++         7  7  7  7  7  7  7  7  8  7  8  7  7  8  8  8  4
++         4  4  4  4  4  4  4  4  4  4  5  4  4  4  4  4  4
++         4  4  4  4  5  4  3  3  3  3  3  3  3  3  3  3  3
++         3  3  3  3  3  3  3  3  3  3  3  3  3  3  3  3  3
++         3  3  3  8  8  8 13  6  5  5  5  5  5  5  5  5  6
++         5  5  6  5  5  6  6  5  5  5  6  8  8  0  0  0  0
%c M  cc GPS ccc cccc cccc cccc cccc ccccc ccccc ccccc ccccc
%c cc cc ccc ccc cccc cccc cccc cccc ccccc ccccc ccccc ccccc
%f  1.2500000  1.025000000  0.00000000000  0.000000000000000
%f  0.0000000  0.000000000  0.00000000000  0.000000000000000
%i    0    0    0    0      0      0      0      0         0
%i    0    0    0    0      0      0      0      0         0
/* INFORMATION & ANALYSIS CENTER (IAC)            FINAL DATA
/* S/V CLOCKS ARE ALIGNED TO GNSS TIME                      
/* G:C1WC2W R:C1PC2P E:C1XC5X C:C2IC6I J:C1CC2S             
/* PCV:IGS14_2070 OL/AL:FES2004  NONE     YN ORB:CoN CLK:CoN
*  2019 10 13 12  0  0.00000000
PC01 -32297.579732  27131.209392   -410.434059      7.851502
PC02      0.000000      0.000000      0.000000 999999.999999
PC03 -14755.134658  39498.714995   -743.341228    288.263203
PC04 -39630.312397  14464.130479   -341.346896   -394.079389
PC05  21874.610032  36037.708945   -263.671337     70.170433
PC06 -22927.673415  25347.062965  24775.517965    364.015087
PC07 -15273.969090  38035.591052  11094.606071   -191.933072
PC08  -7981.441157  21496.854072 -35265.272538    -15.521492
PC09  -6513.475082  25787.341116  32871.633565     37.015013
PC10  -5242.702183  42014.052155  -1940.147392   -265.136909
PC11   4066.788097 -15005.864363  23225.264543     59.274332
PC12  27033.152553  -2484.928611   6320.132921    306.829689
PC13   5832.608637  30242.773405 -28616.130696   -845.138653
PC14   8735.913840 -24923.564001  -8905.911540     89.120117
PC16 -19288.132785  25783.930656  27154.677589   -891.187655
PC19  -1037.448345  22608.856669  16351.536371    217.388274
PC20 -14833.121951  23649.728483    555.422259   -167.356054
PC21  20227.656252 -10579.224914  16048.472244    257.198437
PC22  13559.174128   8438.992191  22880.944197   -218.711914
PC23 -17916.321077 -18001.493378  11571.091076   -908.991567
PC24   6444.725708 -18646.545224 -19737.954360   -883.979571
PC25  -9030.300031 -25818.845519  -5569.045725   -378.565683
PC26  16891.283853  -1458.121190 -22158.678717    421.495735
PC27 -27137.371588   2163.871453  -6118.657117    206.128504
PC28 -23585.133155  -9693.263053  11359.002936    200.502871
PC29   6867.992780  15595.714175 -22102.079531    131.474805
PC30 -14530.638074  13190.641945 -19833.888798    207.197949
PC32 -20162.145375  10754.385312 -16016.967320   -896.567724
PC33    964.449765 -22636.218417 -16281.310644   -465.951919
PC34  14291.914426 -13286.129585  19952.247996   -150.504070
PC35  23850.024433   8967.547267 -11407.023761   -439.665603
PC36   8279.563539  26029.975196   5771.470536   -953.180758
PC37 -17134.366071    455.861021  22050.867300   -603.181857
PE01  15989.945315  -4687.922287 -24454.741313   -709.668608
PE02 -15987.288196   4769.496076  24457.665525     84.961826
PE03 -26529.612624   9518.177345  -9073.293666   -221.323026
PE04  19369.145333 -20378.340913  -9255.789000   -384.454531
PE05 -18197.081302  -7037.846690 -22263.776105   -440.445661
PE07   -730.945539  19386.218760  22362.176470   -282.421862
PE08 -19144.491394  20522.527581   9429.681703   6278.379535
PE09    577.439666 -19243.582823 -22478.796987   6286.596483
PE11 -10212.846760 -19618.256274  19662.570363   5554.833082
PE12  11283.882643 -12432.369370  24378.840761   6152.063746
PE13  10170.754761  19504.381753 -19800.690790    394.105752
PE14  18542.871010  14210.403329 -21443.218669   -755.036167
PE15 -10866.800695  12606.756879 -24473.401230    891.771363
PE18 -22618.336306  -4257.241590  10071.862512   -849.495271
PE19  26321.652882  -7987.754293  10934.316574     -3.451145
PE21  13920.019538  17328.171466 -19544.879117   -560.032972
PE24  -3563.603912 -29214.456131   3229.334095   5822.296333
PE25 -13903.847922 -17389.776302  19515.569265   1649.050990
PE26  25229.608093  15103.545023  -3324.556557   3999.119570
PE27   3635.355966  29211.876158  -3101.038089    367.828763
PE30  -8885.011817  23889.009962  15047.606431   4470.705015
PE31   8727.605061 -23916.995591 -15077.740546   -469.540102
PE33  25568.089532   1685.170455  14818.615232   -471.053667
PE36 -25292.236815 -14980.969386   3505.054670    650.243919
PG01  21435.255329  12937.714006   9124.100242   -161.083569
PG02 -12096.057014 -21184.219509  11272.237984   -324.983282
PG03  14681.618792   3656.693721  21770.652243    -21.878309
PG05  -5111.791156 -21924.459400 -14076.965700     -2.292016
PG06   1334.776251 -17608.676400  19873.064461    -88.963490
PG07  17867.199418  -1415.679975 -19470.171203   -126.195966
PG08  18469.949140   7352.127389 -17682.247503     -9.756516
PG09  25479.361819  -7504.741388   -381.472580    -55.571974
PG10 -11426.204560  22608.800530  -7537.141588    -92.307286
PG11  24954.654687   8579.705391     21.724381   -479.439867
PG12 -12037.312019  -9365.042636  21549.783370    194.490079
PG13  -9194.685915 -13403.796674 -21135.895762    -39.102489
PG14  -5642.458333  15845.578702  20840.842027    -56.355448
PG15 -19964.416604  -6035.080139 -16945.755249   -280.213904
PG16   1056.002468  22898.533806 -13215.781559    -82.888052
PG17  15693.446177 -14336.630195  16289.164166    143.384341
PG18  19911.294052  17638.401693    317.195677     92.721944
PG19   9512.227691 -14792.224822  19615.138988   -254.333234
PG20 -14253.913400  15530.133191 -16151.362443    527.185705
PG21 -14566.404150   6584.311306 -20393.156276   -103.116817
PG22  13099.944131  11814.342084  20099.143469   -763.532323
PG23  24779.580988    649.363731  10400.982060   -161.681980
PG24 -22138.868965 -13452.259023   6472.299019     -3.386231
PG25 -15970.463515   6858.219981  19794.416277    -15.244380
PG26  -3907.166954  25983.848560  -3097.569764     60.524430
PG27   6194.046064  13676.487177 -22039.770111    -86.143115
PG28  12623.145676 -22465.689265  -6052.261035    759.184652
PG29 -26197.270480   4221.529415   1411.346333     72.459982
PG30   9803.428488 -12345.637151 -21330.889536    -60.678229
PG31   -236.782044  18751.849469  18614.281328      3.964801
PG32 -14984.500583  15467.614671  15522.212885     89.879540
PJ01 -26023.825825  32520.290018  -2046.613335   -339.429135
PJ02 -24754.081496  24746.887563  28301.829597     -5.692201
PJ03 -34643.472125  17712.816701 -11636.859514     -3.789212
PJ07 -25374.921686  33681.043625      9.837515     -0.205762
PR01   3882.152100 -17237.832028 -18395.334893     51.115375
PR02 -12500.556946  -2116.957581 -22091.443956    392.659492
PR03 -19275.186326  12435.282013 -11072.910527      3.072781
PR05  -2136.728929  15742.084684  19953.493388     37.434370
PR07  19367.462152 -12785.918344  10662.296255    -27.962552
PR08  15018.828637 -19719.249260  -6002.979073     15.087117
PR09  12862.189764  12279.879086 -18300.294917     95.526636
PR11   1950.715607 -20147.160483 -15468.862843    -82.517305
PR12  -7187.554852 -24485.105179    148.667202     69.865616
PR13 -12638.033820 -14583.546321  16668.258032    -29.562692
PR14 -10447.630574   3530.421311  23020.064844     43.955630
PR15  -2386.391708  19568.897909  16216.281880    104.360262
PR16   7703.092197  24249.839332   -393.878699      2.564003
PR17 -23054.487294   -639.751920 -10941.707231    267.917279
PR18 -10342.467364   7631.635654 -22011.044261     10.757867
PR19   7347.231575  11925.093127 -21315.984068    -58.629169
PR20  22694.493408   9487.702533  -6814.615403   -393.204711
PR21  22662.763049    275.699337  11667.454765    -78.437160
PR22   7505.118270  -8640.029883  22813.124622   -179.829633
PR23 -13385.625926 -11876.821504  18173.510401    259.973252
PR24 -23651.096601  -8289.125184   4714.876196   -185.669718
PR26  21093.217157  10104.047692 -10129.131570      0.583890
PR27  -5024.605532  15722.983057  19426.804641     91.808846
EOF
